KUIPER-00104            
1 65142U 25171L   25264.12874609  .00046757  00000+0  13079-2 0  9990
2 65142  51.8764 208.8536 0002680 289.4601  70.6095 15.36198876  7489
KUIPER-00105            
1 65143U 25171M   25264.56968367  .00076372  00000+0  20753-2 0  9997
2 65143  51.8775 206.5566 0004478 259.8618 100.1864 15.36873276  7562
KUIPER-00106            
1 65144U 25171N   25264.58335648  .00022199  00000+0  79732-3 0  9990
2 65144  51.8763 206.7928 0005116 257.4769  11.4405 15.28572542  5741
KUIPER-00107            
1 65145U 25171P   25264.25586410  .00067067  00000+0  18558-2 0  9991
2 65145  51.8765 208.2058 0004271 283.3837  76.6673 15.36369642  7511
KUIPER-00108            
1 65146U 25171Q   25264.13688889  .00041931  00000+0  11854-2 0  9996
2 65146  51.8769 208.9063 0004288 304.7131  55.3451 15.35912338  7492
KUIPER-00109            
1 65147U 25171R   25264.57639065  .00042417  00000+0  11729-2 0  9998
2 65147  51.8764 206.5976 0004046 272.9420  87.1104 15.36596801  7553
KUIPER-00110            
1 65148U 25171S   25264.58335648 -.00590517  00000+0 -18850-1 0  9992
2 65148  51.8779 206.5968 0003921 275.2674 105.5095 15.34398461  4965
KUIPER-00111            
1 65149U 25171T   25264.58335648 -.00058175  00000+0 -23182-2 0  9997
2 65149  51.8815 207.1442 0004403 305.5937 178.7106 15.24783858  5712
