<?xml version="1.0" encoding="UTF-8"?>
<ndm xmlns:xsi="http://www.w3.org/2001/XMLSchema-instance" xsi:noNamespaceSchemaLocation="https://sanaregistry.org/r/ndmxml_unqualified/ndmxml-2.0.0-master-2.0.xsd">
<omm id="CCSDS_OMM_VERS" version="2.0">
<header><CREATION_DATE/><ORIGINATOR/></header><body><segment><metadata><OBJECT_NAME>KUIPER-00104</OBJECT_NAME><OBJECT_ID>2025-171L</OBJECT_ID><CENTER_NAME>EARTH</CENTER_NAME><REF_FRAME>TEME</REF_FRAME><TIME_SYSTEM>UTC</TIME_SYSTEM><MEAN_ELEMENT_THEORY>SGP4</MEAN_ELEMENT_THEORY></metadata><data><meanElements><EPOCH>2025-09-21T03:05:23.662176</EPOCH><MEAN_MOTION>15.36198876</MEAN_MOTION><ECCENTRICITY>.00026809</ECCENTRICITY><INCLINATION>51.8764</INCLINATION><RA_OF_ASC_NODE>208.8536</RA_OF_ASC_NODE><ARG_OF_PERICENTER>289.4601</ARG_OF_PERICENTER><MEAN_ANOMALY>70.6095</MEAN_ANOMALY></meanElements><tleParameters><EPHEMERIS_TYPE>0</EPHEMERIS_TYPE><CLASSIFICATION_TYPE>U</CLASSIFICATION_TYPE><NORAD_CAT_ID>65142</NORAD_CAT_ID><ELEMENT_SET_NO>999</ELEMENT_SET_NO><REV_AT_EPOCH>748</REV_AT_EPOCH><BSTAR>.13078505E-2</BSTAR><MEAN_MOTION_DOT>.46757E-3</MEAN_MOTION_DOT><MEAN_MOTION_DDOT>0</MEAN_MOTION_DDOT></tleParameters></data></segment></body></omm>
<omm id="CCSDS_OMM_VERS" version="2.0">
<header><CREATION_DATE/><ORIGINATOR/></header><body><segment><metadata><OBJECT_NAME>KUIPER-00105</OBJECT_NAME><OBJECT_ID>2025-171M</OBJECT_ID><CENTER_NAME>EARTH</CENTER_NAME><REF_FRAME>TEME</REF_FRAME><TIME_SYSTEM>UTC</TIME_SYSTEM><MEAN_ELEMENT_THEORY>SGP4</MEAN_ELEMENT_THEORY></metadata><data><meanElements><EPOCH>2025-09-21T13:40:20.669088</EPOCH><MEAN_MOTION>15.36873276</MEAN_MOTION><ECCENTRICITY>.00044784</ECCENTRICITY><INCLINATION>51.8775</INCLINATION><RA_OF_ASC_NODE>206.5566</RA_OF_ASC_NODE><ARG_OF_PERICENTER>259.8618</ARG_OF_PERICENTER><MEAN_ANOMALY>100.1864</MEAN_ANOMALY></meanElements><tleParameters><EPHEMERIS_TYPE>0</EPHEMERIS_TYPE><CLASSIFICATION_TYPE>U</CLASSIFICATION_TYPE><NORAD_CAT_ID>65143</NORAD_CAT_ID><ELEMENT_SET_NO>999</ELEMENT_SET_NO><REV_AT_EPOCH>756</REV_AT_EPOCH><BSTAR>.20752619E-2</BSTAR><MEAN_MOTION_DOT>.76372E-3</MEAN_MOTION_DOT><MEAN_MOTION_DDOT>0</MEAN_MOTION_DDOT></tleParameters></data></segment></body></omm>
<omm id="CCSDS_OMM_VERS" version="2.0">
<header><CREATION_DATE/><ORIGINATOR/></header><body><segment><metadata><OBJECT_NAME>KUIPER-00106</OBJECT_NAME><OBJECT_ID>2025-171N</OBJECT_ID><CENTER_NAME>EARTH</CENTER_NAME><REF_FRAME>TEME</REF_FRAME><TIME_SYSTEM>UTC</TIME_SYSTEM><MEAN_ELEMENT_THEORY>SGP4</MEAN_ELEMENT_THEORY></metadata><data><meanElements><EPOCH>2025-09-21T14:00:01.999872</EPOCH><MEAN_MOTION>15.28572542</MEAN_MOTION><ECCENTRICITY>.00051163</ECCENTRICITY><INCLINATION>51.8763</INCLINATION><RA_OF_ASC_NODE>206.7928</RA_OF_ASC_NODE><ARG_OF_PERICENTER>257.4769</ARG_OF_PERICENTER><MEAN_ANOMALY>11.4405</MEAN_ANOMALY></meanElements><tleParameters><EPHEMERIS_TYPE>0</EPHEMERIS_TYPE><CLASSIFICATION_TYPE>U</CLASSIFICATION_TYPE><NORAD_CAT_ID>65144</NORAD_CAT_ID><ELEMENT_SET_NO>999</ELEMENT_SET_NO><REV_AT_EPOCH>574</REV_AT_EPOCH><BSTAR>.79732475E-3</BSTAR><MEAN_MOTION_DOT>.22199E-3</MEAN_MOTION_DOT><MEAN_MOTION_DDOT>0</MEAN_MOTION_DDOT></tleParameters></data></segment></body></omm>
<omm id="CCSDS_OMM_VERS" version="2.0">
<header><CREATION_DATE/><ORIGINATOR/></header><body><segment><metadata><OBJECT_NAME>KUIPER-00107</OBJECT_NAME><OBJECT_ID>2025-171P</OBJECT_ID><CENTER_NAME>EARTH</CENTER_NAME><REF_FRAME>TEME</REF_FRAME><TIME_SYSTEM>UTC</TIME_SYSTEM><MEAN_ELEMENT_THEORY>SGP4</MEAN_ELEMENT_THEORY></metadata><data><meanElements><EPOCH>2025-09-21T06:08:26.658240</EPOCH><MEAN_MOTION>15.36369642</MEAN_MOTION><ECCENTRICITY>.00042712</ECCENTRICITY><INCLINATION>51.8765</INCLINATION><RA_OF_ASC_NODE>208.2058</RA_OF_ASC_NODE><ARG_OF_PERICENTER>283.3837</ARG_OF_PERICENTER><MEAN_ANOMALY>76.6673</MEAN_ANOMALY></meanElements><tleParameters><EPHEMERIS_TYPE>0</EPHEMERIS_TYPE><CLASSIFICATION_TYPE>U</CLASSIFICATION_TYPE><NORAD_CAT_ID>65145</NORAD_CAT_ID><ELEMENT_SET_NO>999</ELEMENT_SET_NO><REV_AT_EPOCH>751</REV_AT_EPOCH><BSTAR>.18557978E-2</BSTAR><MEAN_MOTION_DOT>.67067E-3</MEAN_MOTION_DOT><MEAN_MOTION_DDOT>0</MEAN_MOTION_DDOT></tleParameters></data></segment></body></omm>
<omm id="CCSDS_OMM_VERS" version="2.0">
<header><CREATION_DATE/><ORIGINATOR/></header><body><segment><metadata><OBJECT_NAME>KUIPER-00108</OBJECT_NAME><OBJECT_ID>2025-171Q</OBJECT_ID><CENTER_NAME>EARTH</CENTER_NAME><REF_FRAME>TEME</REF_FRAME><TIME_SYSTEM>UTC</TIME_SYSTEM><MEAN_ELEMENT_THEORY>SGP4</MEAN_ELEMENT_THEORY></metadata><data><meanElements><EPOCH>2025-09-21T03:17:07.200096</EPOCH><MEAN_MOTION>15.35912338</MEAN_MOTION><ECCENTRICITY>.00042886</ECCENTRICITY><INCLINATION>51.8769</INCLINATION><RA_OF_ASC_NODE>208.9063</RA_OF_ASC_NODE><ARG_OF_PERICENTER>304.7131</ARG_OF_PERICENTER><MEAN_ANOMALY>55.3451</MEAN_ANOMALY></meanElements><tleParameters><EPHEMERIS_TYPE>0</EPHEMERIS_TYPE><CLASSIFICATION_TYPE>U</CLASSIFICATION_TYPE><NORAD_CAT_ID>65146</NORAD_CAT_ID><ELEMENT_SET_NO>999</ELEMENT_SET_NO><REV_AT_EPOCH>749</REV_AT_EPOCH><BSTAR>.11853807E-2</BSTAR><MEAN_MOTION_DOT>.41931E-3</MEAN_MOTION_DOT><MEAN_MOTION_DDOT>0</MEAN_MOTION_DDOT></tleParameters></data></segment></body></omm>
<omm id="CCSDS_OMM_VERS" version="2.0">
<header><CREATION_DATE/><ORIGINATOR/></header><body><segment><metadata><OBJECT_NAME>KUIPER-00109</OBJECT_NAME><OBJECT_ID>2025-171R</OBJECT_ID><CENTER_NAME>EARTH</CENTER_NAME><REF_FRAME>TEME</REF_FRAME><TIME_SYSTEM>UTC</TIME_SYSTEM><MEAN_ELEMENT_THEORY>SGP4</MEAN_ELEMENT_THEORY></metadata><data><meanElements><EPOCH>2025-09-21T13:50:00.152160</EPOCH><MEAN_MOTION>15.36596801</MEAN_MOTION><ECCENTRICITY>.00040462</ECCENTRICITY><INCLINATION>51.8764</INCLINATION><RA_OF_ASC_NODE>206.5976</RA_OF_ASC_NODE><ARG_OF_PERICENTER>272.9420</ARG_OF_PERICENTER><MEAN_ANOMALY>87.1104</MEAN_ANOMALY></meanElements><tleParameters><EPHEMERIS_TYPE>0</EPHEMERIS_TYPE><CLASSIFICATION_TYPE>U</CLASSIFICATION_TYPE><NORAD_CAT_ID>65147</NORAD_CAT_ID><ELEMENT_SET_NO>999</ELEMENT_SET_NO><REV_AT_EPOCH>755</REV_AT_EPOCH><BSTAR>.11729124E-2</BSTAR><MEAN_MOTION_DOT>.42417E-3</MEAN_MOTION_DOT><MEAN_MOTION_DDOT>0</MEAN_MOTION_DDOT></tleParameters></data></segment></body></omm>
<omm id="CCSDS_OMM_VERS" version="2.0">
<header><CREATION_DATE/><ORIGINATOR/></header><body><segment><metadata><OBJECT_NAME>KUIPER-00110</OBJECT_NAME><OBJECT_ID>2025-171S</OBJECT_ID><CENTER_NAME>EARTH</CENTER_NAME><REF_FRAME>TEME</REF_FRAME><TIME_SYSTEM>UTC</TIME_SYSTEM><MEAN_ELEMENT_THEORY>SGP4</MEAN_ELEMENT_THEORY></metadata><data><meanElements><EPOCH>2025-09-21T14:00:01.999872</EPOCH><MEAN_MOTION>15.34398461</MEAN_MOTION><ECCENTRICITY>.00039213</ECCENTRICITY><INCLINATION>51.8779</INCLINATION><RA_OF_ASC_NODE>206.5968</RA_OF_ASC_NODE><ARG_OF_PERICENTER>275.2674</ARG_OF_PERICENTER><MEAN_ANOMALY>105.5095</MEAN_ANOMALY></meanElements><tleParameters><EPHEMERIS_TYPE>0</EPHEMERIS_TYPE><CLASSIFICATION_TYPE>U</CLASSIFICATION_TYPE><NORAD_CAT_ID>65148</NORAD_CAT_ID><ELEMENT_SET_NO>999</ELEMENT_SET_NO><REV_AT_EPOCH>496</REV_AT_EPOCH><BSTAR>-.1884976E-1</BSTAR><MEAN_MOTION_DOT>-.590517E-2</MEAN_MOTION_DOT><MEAN_MOTION_DDOT>0</MEAN_MOTION_DDOT></tleParameters></data></segment></body></omm>
<omm id="CCSDS_OMM_VERS" version="2.0">
<header><CREATION_DATE/><ORIGINATOR/></header><body><segment><metadata><OBJECT_NAME>KUIPER-00111</OBJECT_NAME><OBJECT_ID>2025-171T</OBJECT_ID><CENTER_NAME>EARTH</CENTER_NAME><REF_FRAME>TEME</REF_FRAME><TIME_SYSTEM>UTC</TIME_SYSTEM><MEAN_ELEMENT_THEORY>SGP4</MEAN_ELEMENT_THEORY></metadata><data><meanElements><EPOCH>2025-09-21T14:00:01.999872</EPOCH><MEAN_MOTION>15.24783858</MEAN_MOTION><ECCENTRICITY>.00044031</ECCENTRICITY><INCLINATION>51.8815</INCLINATION><RA_OF_ASC_NODE>207.1442</RA_OF_ASC_NODE><ARG_OF_PERICENTER>305.5937</ARG_OF_PERICENTER><MEAN_ANOMALY>178.7106</MEAN_ANOMALY></meanElements><tleParameters><EPHEMERIS_TYPE>0</EPHEMERIS_TYPE><CLASSIFICATION_TYPE>U</CLASSIFICATION_TYPE><NORAD_CAT_ID>65149</NORAD_CAT_ID><ELEMENT_SET_NO>999</ELEMENT_SET_NO><REV_AT_EPOCH>571</REV_AT_EPOCH><BSTAR>-.23181754E-2</BSTAR><MEAN_MOTION_DOT>-.58175E-3</MEAN_MOTION_DOT><MEAN_MOTION_DDOT>0</MEAN_MOTION_DDOT></tleParameters></data></segment></body></omm>

</ndm>
